FENGYUN 1C DEB          
1 33706U 99025DGT 17345.48036535  .00001590  00000-0  39414-3 0  9997
2 33706  98.9770 165.8236 0125489 143.2571 217.7305 14.48813725521538
